ONEWEB-0620             
1 55161U 23004X   25363.68309355  .00000402  00000+0  10982-2 0  9992
2 55161  87.8837  54.8338 0001529 106.0927 254.0370 13.11414466143611
ONEWEB-0621             
1 55162U 23004Y   25363.71021134 -.00000512  00000+0 -14819-2 0  9990
2 55162  87.8846  54.8007 0001962 104.0496 256.0850 13.11414764143598
ONEWEB-0622             
1 55163U 23004Z   25363.10492149 -.00000458  00000+0 -13272-2 0  9993
2 55163  87.8844  54.9294 0001891 125.1664 234.9641 13.11415996143500
ONEWEB-0623             
1 55164U 23004AA  25363.83238208  .00000034  00000+0  54453-4 0  9994
2 55164  87.9091  39.5540 0002345 112.6918 247.4462 13.17648344145285
ONEWEB-0624             
1 55165U 23004AB  25363.78188056 -.00000270  00000+0 -78090-3 0  9990
2 55165  87.8918  24.2644 0001909 101.9230 258.2112 13.12922775145844
ONEWEB-0625             
1 55166U 23004AC  25363.51849879 -.00000007  00000+0 -51365-4 0  9994
2 55166  87.9092  39.6111 0001891  91.4908 268.6440 13.17649569145237
ONEWEB-0626             
1 55167U 23004AD  25363.81211036  .00000209  00000+0  50528-3 0  9997
2 55167  87.9090  39.5524 0001303  94.2448 265.8833 13.17648453145271
ONEWEB-0627             
1 55168U 23004AE  25363.80031961  .00000142  00000+0  33369-3 0  9994
2 55168  87.9090  39.5551 0002017 111.0611 249.0736 13.17649436145273
